[{"OBJECT_NAME":"FLOCK 4BE-30","OBJECT_ID":"2024-149AH","EPOCH":"2026-04-05T04:27:44.099712","MEAN_MOTION":15.42853257,"ECCENTRICITY":0.00034819,"INCLINATION":97.3805,"RA_OF_ASC_NODE":179.1032,"ARG_OF_PERICENTER":206.5805,"MEAN_ANOMALY":153.5265,"EPHEMERIS_TYPE":0,"CLASSIFICATION_TYPE":"U","NORAD_CAT_ID":60499,"ELEMENT_SET_NO":999,"REV_AT_EPOCH":9047,"BSTAR":0.0023068725,"MEAN_MOTION_DOT":0.00102304,"MEAN_MOTION_DDOT":0},{"OBJECT_NAME":"FLOCK 4BE-11","OBJECT_ID":"2024-149AK","EPOCH":"2026-04-05T03:58:53.644224","MEAN_MOTION":15.40556955,"ECCENTRICITY":0.00047367,"INCLINATION":97.3713,"RA_OF_ASC_NODE":178.5984,"ARG_OF_PERICENTER":163.8935,"MEAN_ANOMALY":196.2463,"EPHEMERIS_TYPE":0,"CLASSIFICATION_TYPE":"U","NORAD_CAT_ID":60501,"ELEMENT_SET_NO":999,"REV_AT_EPOCH":9110,"BSTAR":0.00063871507,"MEAN_MOTION_DOT":0.00025933,"MEAN_MOTION_DDOT":0},{"OBJECT_NAME":"FLOCK 4BE-24","OBJECT_ID":"2024-149AP","EPOCH":"2026-04-05T05:09:43.676640","MEAN_MOTION":15.40417539,"ECCENTRICITY":0.00047594,"INCLINATION":97.3726,"RA_OF_ASC_NODE":178.8934,"ARG_OF_PERICENTER":173.6513,"MEAN_ANOMALY":186.4794,"EPHEMERIS_TYPE":0,"CLASSIFICATION_TYPE":"U","NORAD_CAT_ID":60505,"ELEMENT_SET_NO":999,"REV_AT_EPOCH":9112,"BSTAR":0.00068227095,"MEAN_MOTION_DOT":0.00027586,"MEAN_MOTION_DDOT":0},{"OBJECT_NAME":"TANAGER-1","OBJECT_ID":"2024-149AR","EPOCH":"2026-04-05T04:59:00.646368","MEAN_MOTION":15.43824932,"ECCENTRICITY":0.000723,"INCLINATION":97.3722,"RA_OF_ASC_NODE":188.9473,"ARG_OF_PERICENTER":198.0094,"MEAN_ANOMALY":162.0899,"EPHEMERIS_TYPE":0,"CLASSIFICATION_TYPE":"U","NORAD_CAT_ID":60507,"ELEMENT_SET_NO":999,"REV_AT_EPOCH":9177,"BSTAR":0.00046762029,"MEAN_MOTION_DOT":0.00021148,"MEAN_MOTION_DDOT":0},{"OBJECT_NAME":"FLOCK 4BE-29","OBJECT_ID":"2024-149AT","EPOCH":"2026-04-05T05:15:27.800928","MEAN_MOTION":15.41748407,"ECCENTRICITY":0.00032459,"INCLINATION":97.3814,"RA_OF_ASC_NODE":180.1295,"ARG_OF_PERICENTER":175.6209,"MEAN_ANOMALY":184.5067,"EPHEMERIS_TYPE":0,"CLASSIFICATION_TYPE":"U","NORAD_CAT_ID":60509,"ELEMENT_SET_NO":999,"REV_AT_EPOCH":9116,"BSTAR":0.00065584388,"MEAN_MOTION_DOT":0.00027704,"MEAN_MOTION_DDOT":0},{"OBJECT_NAME":"FLOCK 4BE-2","OBJECT_ID":"2024-149AV","EPOCH":"2026-04-05T04:38:04.172640","MEAN_MOTION":15.45922349,"ECCENTRICITY":0.00043904,"INCLINATION":97.3823,"RA_OF_ASC_NODE":180.8224,"ARG_OF_PERICENTER":178.022,"MEAN_ANOMALY":182.1048,"EPHEMERIS_TYPE":0,"CLASSIFICATION_TYPE":"U","NORAD_CAT_ID":60511,"ELEMENT_SET_NO":999,"REV_AT_EPOCH":9120,"BSTAR":0.0011695048,"MEAN_MOTION_DOT":0.00057162,"MEAN_MOTION_DDOT":0},{"OBJECT_NAME":"FLOCK 4BE-13","OBJECT_ID":"2024-149AW","EPOCH":"2026-04-05T03:55:09.080256","MEAN_MOTION":15.3990984,"ECCENTRICITY":0.00048055,"INCLINATION":97.373,"RA_OF_ASC_NODE":178.9263,"ARG_OF_PERICENTER":160.2311,"MEAN_ANOMALY":199.9122,"EPHEMERIS_TYPE":0,"CLASSIFICATION_TYPE":"U","NORAD_CAT_ID":60512,"ELEMENT_SET_NO":999,"REV_AT_EPOCH":9112,"BSTAR":0.00053072365,"MEAN_MOTION_DOT":0.00021067,"MEAN_MOTION_DDOT":0},{"OBJECT_NAME":"FLOCK 4BE-27","OBJECT_ID":"2024-149AX","EPOCH":"2026-04-05T04:35:32.557920","MEAN_MOTION":15.33204515,"ECCENTRICITY":0.00040523,"INCLINATION":97.3836,"RA_OF_ASC_NODE":177.0761,"ARG_OF_PERICENTER":183.4976,"MEAN_ANOMALY":176.6239,"EPHEMERIS_TYPE":0,"CLASSIFICATION_TYPE":"U","NORAD_CAT_ID":60513,"ELEMENT_SET_NO":999,"REV_AT_EPOCH":9095,"BSTAR":0.00039787505,"MEAN_MOTION_DOT":0.00012696,"MEAN_MOTION_DDOT":0},{"OBJECT_NAME":"FLOCK 4BE-9","OBJECT_ID":"2024-149AY","EPOCH":"2026-04-05T04:05:43.447200","MEAN_MOTION":15.38633526,"ECCENTRICITY":0.00033522,"INCLINATION":97.38,"RA_OF_ASC_NODE":178.8567,"ARG_OF_PERICENTER":175.7887,"MEAN_ANOMALY":184.3387,"EPHEMERIS_TYPE":0,"CLASSIFICATION_TYPE":"U","NORAD_CAT_ID":60514,"ELEMENT_SET_NO":999,"REV_AT_EPOCH":9108,"BSTAR":0.00058289728,"MEAN_MOTION_DOT":0.00022199,"MEAN_MOTION_DDOT":0},{"OBJECT_NAME":"FLOCK 4BE-6","OBJECT_ID":"2024-149BA","EPOCH":"2026-04-05T05:04:26.907456","MEAN_MOTION":15.37606091,"ECCENTRICITY":0.00040735,"INCLINATION":97.3799,"RA_OF_ASC_NODE":178.3823,"ARG_OF_PERICENTER":178.5954,"MEAN_ANOMALY":181.5303,"EPHEMERIS_TYPE":0,"CLASSIFICATION_TYPE":"U","NORAD_CAT_ID":60516,"ELEMENT_SET_NO":999,"REV_AT_EPOCH":9105,"BSTAR":0.00055329714,"MEAN_MOTION_DOT":0.00020373,"MEAN_MOTION_DDOT":0},{"OBJECT_NAME":"FLOCK 4BE-14","OBJECT_ID":"2024-149BB","EPOCH":"2026-04-05T04:35:04.665408","MEAN_MOTION":15.38776737,"ECCENTRICITY":0.0005086,"INCLINATION":97.3707,"RA_OF_ASC_NODE":178.4465,"ARG_OF_PERICENTER":181.1512,"MEAN_ANOMALY":178.9723,"EPHEMERIS_TYPE":0,"CLASSIFICATION_TYPE":"U","NORAD_CAT_ID":60517,"ELEMENT_SET_NO":999,"REV_AT_EPOCH":9109,"BSTAR":0.00062437184,"MEAN_MOTION_DOT":0.00023907,"MEAN_MOTION_DDOT":0},{"OBJECT_NAME":"FLOCK 4BE-1","OBJECT_ID":"2024-149BC","EPOCH":"2026-04-05T05:08:09.282048","MEAN_MOTION":15.4021695,"ECCENTRICITY":0.00047731,"INCLINATION":97.3788,"RA_OF_ASC_NODE":179.497,"ARG_OF_PERICENTER":180.714,"MEAN_ANOMALY":179.41,"EPHEMERIS_TYPE":0,"CLASSIFICATION_TYPE":"U","NORAD_CAT_ID":60518,"ELEMENT_SET_NO":999,"REV_AT_EPOCH":9113,"BSTAR":0.00064587811,"MEAN_MOTION_DOT":0.00025933,"MEAN_MOTION_DDOT":0},{"OBJECT_NAME":"FLOCK 4BE-28","OBJECT_ID":"2024-149BD","EPOCH":"2026-04-05T04:54:16.411104","MEAN_MOTION":15.42364601,"ECCENTRICITY":0.00048296,"INCLINATION":97.3753,"RA_OF_ASC_NODE":179.9944,"ARG_OF_PERICENTER":179.5804,"MEAN_ANOMALY":180.5448,"EPHEMERIS_TYPE":0,"CLASSIFICATION_TYPE":"U","NORAD_CAT_ID":60519,"ELEMENT_SET_NO":999,"REV_AT_EPOCH":9118,"BSTAR":0.00064833998,"MEAN_MOTION_DOT":0.00027961,"MEAN_MOTION_DDOT":0},{"OBJECT_NAME":"FLOCK 4BE-35","OBJECT_ID":"2024-149CU","EPOCH":"2026-04-05T04:10:39.595296","MEAN_MOTION":15.49820671,"ECCENTRICITY":0.00058186,"INCLINATION":97.3741,"RA_OF_ASC_NODE":178.8953,"ARG_OF_PERICENTER":197.2511,"MEAN_ANOMALY":162.8543,"EPHEMERIS_TYPE":0,"CLASSIFICATION_TYPE":"U","NORAD_CAT_ID":60558,"ELEMENT_SET_NO":999,"REV_AT_EPOCH":9109,"BSTAR":0.0025423854,"MEAN_MOTION_DOT":0.00143957,"MEAN_MOTION_DDOT":0},{"OBJECT_NAME":"FLOCK 4BE-5","OBJECT_ID":"2024-149CV","EPOCH":"2026-04-05T05:09:55.380384","MEAN_MOTION":15.3814669,"ECCENTRICITY":0.00037707,"INCLINATION":97.3849,"RA_OF_ASC_NODE":178.6322,"ARG_OF_PERICENTER":179.8793,"MEAN_ANOMALY":180.2454,"EPHEMERIS_TYPE":0,"CLASSIFICATION_TYPE":"U","NORAD_CAT_ID":60559,"ELEMENT_SET_NO":999,"REV_AT_EPOCH":9105,"BSTAR":0.00063732353,"MEAN_MOTION_DOT":0.00023904,"MEAN_MOTION_DDOT":0},{"OBJECT_NAME":"FLOCK 4BE-12","OBJECT_ID":"2024-149CW","EPOCH":"2026-04-05T04:47:09.084480","MEAN_MOTION":15.541047,"ECCENTRICITY":0.00066765,"INCLINATION":97.3694,"RA_OF_ASC_NODE":179.7809,"ARG_OF_PERICENTER":201.9774,"MEAN_ANOMALY":158.1195,"EPHEMERIS_TYPE":0,"CLASSIFICATION_TYPE":"U","NORAD_CAT_ID":60560,"ELEMENT_SET_NO":999,"REV_AT_EPOCH":9117,"BSTAR":0.0026527793,"MEAN_MOTION_DOT":0.00175734,"MEAN_MOTION_DDOT":0}]
