FLOCK 4BE-30            
1 60499U 24149AH  26095.18592708  .00102304  00000+0  23069-2 0  9991
2 60499  97.3805 179.1032 0003481 206.5805 153.5265 15.42853257 90476
FLOCK 4BE-11            
1 60501U 24149AK  26095.16589866  .00025933  00000+0  63872-3 0  9993
2 60501  97.3713 178.5984 0004736 163.8935 196.2463 15.40556955 91108
FLOCK 4BE-24            
1 60505U 24149AP  26095.21508885  .00027586  00000+0  68227-3 0  9990
2 60505  97.3726 178.8934 0004759 173.6513 186.4794 15.40417539 91124
TANAGER-1               
1 60507U 24149AR  26095.20764637  .00021148  00000+0  46762-3 0  9998
2 60507  97.3722 188.9473 0007230 198.0094 162.0899 15.43824932 91773
FLOCK 4BE-29            
1 60509U 24149AT  26095.21907177  .00027704  00000+0  65584-3 0  9996
2 60509  97.3814 180.1295 0003245 175.6209 184.5067 15.41748407 91163
FLOCK 4BE-2             
1 60511U 24149AV  26095.19310385  .00057162  00000+0  11695-2 0  9999
2 60511  97.3823 180.8224 0004390 178.0220 182.1048 15.45922349 91208
FLOCK 4BE-13            
1 60512U 24149AW  26095.16329954  .00021067  00000+0  53072-3 0  9990
2 60512  97.3730 178.9263 0004805 160.2311 199.9122 15.39909840 91126
FLOCK 4BE-27            
1 60513U 24149AX  26095.19134905  .00012696  00000+0  39788-3 0  9990
2 60513  97.3836 177.0761 0004052 183.4976 176.6239 15.33204515 90957
FLOCK 4BE-9             
1 60514U 24149AY  26095.17064175  .00022199  00000+0  58290-3 0  9998
2 60514  97.3800 178.8567 0003352 175.7887 184.3387 15.38633526 91087
FLOCK 4BE-6             
1 60516U 24149BA  26095.21142254  .00020373  00000+0  55330-3 0  9994
2 60516  97.3799 178.3823 0004073 178.5954 181.5303 15.37606091 91053
FLOCK 4BE-14            
1 60517U 24149BB  26095.19102622  .00023907  00000+0  62437-3 0  9999
2 60517  97.3707 178.4465 0005086 181.1512 178.9723 15.38776737 91097
FLOCK 4BE-1             
1 60518U 24149BC  26095.21399632  .00025933  00000+0  64588-3 0  9992
2 60518  97.3788 179.4970 0004773 180.7140 179.4100 15.40216950 91132
FLOCK 4BE-28            
1 60519U 24149BD  26095.20435661  .00027961  00000+0  64834-3 0  9992
2 60519  97.3753 179.9944 0004829 179.5804 180.5448 15.42364601 91188
FLOCK 4BE-35            
1 60558U 24149CU  26095.17406939  .00143957  00000+0  25424-2 0  9992
2 60558  97.3741 178.8953 0005818 197.2511 162.8543 15.49820671 91097
FLOCK 4BE-5             
1 60559U 24149CV  26095.21522431  .00023904  00000+0  63732-3 0  9998
2 60559  97.3849 178.6322 0003770 179.8793 180.2454 15.38146690 91059
FLOCK 4BE-12            
1 60560U 24149CW  26095.19941070  .00175734  00000+0  26528-2 0  9991
2 60560  97.3694 179.7809 0006676 201.9774 158.1195 15.54104700 91178
